{
  "type": "FeatureCollection",
  "features": [
    {
      "type": "Feature",
      "properties": {
        "norad_id": 66590,
        "name": "STARLINK-35429",
        "group": "last-30-days",
        "lat": 34.169028839240426,
        "lon": -17.16747111909407,
        "alt_km": 399.55827187589966,
        "timestamp": "2025-12-09T20:37:08.056475+00:00",
        "meta_object_name": "STARLINK-35429",
        "meta_object_id": "2025-270C",
        "meta_epoch": "2025-12-09T14:00:01.999872",
        "meta_mean_motion": 15.55506176,
        "meta_eccentricity": 0.00016734,
        "meta_inclination": 42.9992,
        "meta_ra_of_asc_node": 211.2153,
        "meta_arg_of_pericenter": 260.2363,
        "meta_mean_anomaly": 118.7716,
        "meta_ephemeris_type": 0,
        "meta_classification_type": "U",
        "meta_norad_cat_id": 66590,
        "meta_element_set_no": 999,
        "meta_rev_at_epoch": 400,
        "meta_bstar": -0.031852221,
        "meta_mean_motion_dot": -0.01999528,
        "meta_mean_motion_ddot": 0,
        "tle_line1": "1 66590U 25270C   25343.58335648 -.01999528  00000+0 -31852-1 0  9995",
        "tle_line2": "2 66590  42.9992 211.2153 0001673 260.2363 118.7716 15.55506176  4003"
      },
      "geometry": {
        "type": "Point",
        "coordinates": [
          -17.16747111909407,
          34.169028839240426
        ]
      }
    },
    {
      "type": "Feature",
      "properties": {
        "norad_id": 66591,
        "name": "STARLINK-36058",
        "group": "last-30-days",
        "lat": 32.31300758616495,
        "lon": -13.165352225872798,
        "alt_km": 399.8113212047065,
        "timestamp": "2025-12-09T20:37:08.056485+00:00",
        "meta_object_name": "STARLINK-36058",
        "meta_object_id": "2025-270D",
        "meta_epoch": "2025-12-09T14:00:01.999872",
        "meta_mean_motion": 15.55504088,
        "meta_eccentricity": 0.00017801,
        "meta_inclination": 42.9995,
        "meta_ra_of_asc_node": 211.2056,
        "meta_arg_of_pericenter": 258.2709,
        "meta_mean_anomaly": 124.5701,
        "meta_ephemeris_type": 0,
        "meta_classification_type": "U",
        "meta_norad_cat_id": 66591,
        "meta_element_set_no": 999,
        "meta_rev_at_epoch": 389,
        "meta_bstar": -0.031803442,
        "meta_mean_motion_dot": -0.01996713,
        "meta_mean_motion_ddot": 0,
        "tle_line1": "1 66591U 25270D   25343.58335648 -.01996713  00000+0 -31803-1 0  9995",
        "tle_line2": "2 66591  42.9995 211.2056 0001780 258.2709 124.5701 15.55504088  3894"
      },
      "geometry": {
        "type": "Point",
        "coordinates": [
          -13.165352225872798,
          32.31300758616495
        ]
      }
    },
    {
      "type": "Feature",
      "properties": {
        "norad_id": 66592,
        "name": "STARLINK-36066",
        "group": "last-30-days",
        "lat": 31.33695122196318,
        "lon": -11.22433636784102,
        "alt_km": 399.9468384356378,
        "timestamp": "2025-12-09T20:37:08.056497+00:00",
        "meta_object_name": "STARLINK-36066",
        "meta_object_id": "2025-270E",
        "meta_epoch": "2025-12-09T14:00:01.999872",
        "meta_mean_motion": 15.55505625,
        "meta_eccentricity": 0.00017365,
        "meta_inclination": 42.9995,
        "meta_ra_of_asc_node": 211.2009,
        "meta_arg_of_pericenter": 260.0319,
        "meta_mean_anomaly": 124.7253,
        "meta_ephemeris_type": 0,
        "meta_classification_type": "U",
        "meta_norad_cat_id": 66592,
        "meta_element_set_no": 999,
        "meta_rev_at_epoch": 379,
        "meta_bstar": -0.031829303,
        "meta_mean_motion_dot": -0.01998243,
        "meta_mean_motion_ddot": 0,
        "tle_line1": "1 66592U 25270E   25343.58335648 -.01998243  00000+0 -31829-1 0  9994",
        "tle_line2": "2 66592  42.9995 211.2009 0001736 260.0319 124.7253 15.55505625  3793"
      },
      "geometry": {
        "type": "Point",
        "coordinates": [
          -11.22433636784102,
          31.33695122196318
        ]
      }
    },
    {
      "type": "Feature",
      "properties": {
        "norad_id": 66593,
        "name": "STARLINK-36031",
        "group": "last-30-days",
        "lat": 30.332923351473298,
        "lon": -9.325268200070095,
        "alt_km": 400.0140176757677,
        "timestamp": "2025-12-09T20:37:08.056507+00:00",
        "meta_object_name": "STARLINK-36031",
        "meta_object_id": "2025-270F",
        "meta_epoch": "2025-12-09T14:00:01.999872",
        "meta_mean_motion": 15.55504909,
        "meta_eccentricity": 0.00018055,
        "meta_inclination": 42.9995,
        "meta_ra_of_asc_node": 211.1962,
        "meta_arg_of_pericenter": 255.2752,
        "meta_mean_anomaly": 131.4018,
        "meta_ephemeris_type": 0,
        "meta_classification_type": "U",
        "meta_norad_cat_id": 66593,
        "meta_element_set_no": 999,
        "meta_rev_at_epoch": 389,
        "meta_bstar": -0.031863333,
        "meta_mean_motion_dot": -0.02000152,
        "meta_mean_motion_ddot": 0,
        "tle_line1": "1 66593U 25270F   25343.58335648 -.02000152  00000+0 -31863-1 0  9997",
        "tle_line2": "2 66593  42.9995 211.1962 0001805 255.2752 131.4018 15.55504909  3894"
      },
      "geometry": {
        "type": "Point",
        "coordinates": [
          -9.325268200070095,
          30.332923351473298
        ]
      }
    },
    {
      "type": "Feature",
      "properties": {
        "norad_id": 66594,
        "name": "STARLINK-36032",
        "group": "last-30-days",
        "lat": 29.30122487200735,
        "lon": -7.46444117765898,
        "alt_km": 400.16448935892913,
        "timestamp": "2025-12-09T20:37:08.056517+00:00",
        "meta_object_name": "STARLINK-36032",
        "meta_object_id": "2025-270G",
        "meta_epoch": "2025-12-09T14:00:01.999872",
        "meta_mean_motion": 15.55504739,
        "meta_eccentricity": 0.00017101,
        "meta_inclination": 42.9994,
        "meta_ra_of_asc_node": 211.1914,
        "meta_arg_of_pericenter": 258.2811,
        "meta_mean_anomaly": 130.3115,
        "meta_ephemeris_type": 0,
        "meta_classification_type": "U",
        "meta_norad_cat_id": 66594,
        "meta_element_set_no": 999,
        "meta_rev_at_epoch": 363,
        "meta_bstar": -0.031825284,
        "meta_mean_motion_dot": -0.01997941,
        "meta_mean_motion_ddot": 0,
        "tle_line1": "1 66594U 25270G   25343.58335648 -.01997941  00000+0 -31825-1 0  9996",
        "tle_line2": "2 66594  42.9994 211.1914 0001710 258.2811 130.3115 15.55504739  3634"
      },
      "geometry": {
        "type": "Point",
        "coordinates": [
          -7.46444117765898,
          29.30122487200735
        ]
      }
    },
    {
      "type": "Feature",
      "properties": {
        "norad_id": 66595,
        "name": "STARLINK-35711",
        "group": "last-30-days",
        "lat": 28.243698113912092,
        "lon": -5.640933052307874,
        "alt_km": 400.3634934881502,
        "timestamp": "2025-12-09T20:37:08.056529+00:00",
        "meta_object_name": "STARLINK-35711",
        "meta_object_id": "2025-270H",
        "meta_epoch": "2025-12-09T14:00:01.999872",
        "meta_mean_motion": 15.55506321,
        "meta_eccentricity": 0.00017324,
        "meta_inclination": 42.9996,
        "meta_ra_of_asc_node": 211.1859,
        "meta_arg_of_pericenter": 261.0498,
        "meta_mean_anomaly": 129.4603,
        "meta_ephemeris_type": 0,
        "meta_classification_type": "U",
        "meta_norad_cat_id": 66595,
        "meta_element_set_no": 999,
        "meta_rev_at_epoch": 400,
        "meta_bstar": -0.031855459,
        "meta_mean_motion_dot": -0.01999757,
        "meta_mean_motion_ddot": 0,
        "tle_line1": "1 66595U 25270H   25343.58335648 -.01999757  00000+0 -31855-1 0  9997",
        "tle_line2": "2 66595  42.9996 211.1859 0001732 261.0498 129.4603 15.55506321  4004"
      },
      "geometry": {
        "type": "Point",
        "coordinates": [
          -5.640933052307874,
          28.243698113912092
        ]
      }
    },
    {
      "type": "Feature",
      "properties": {
        "norad_id": 66596,
        "name": "STARLINK-35811",
        "group": "last-30-days",
        "lat": 27.16412826413985,
        "lon": -3.8560664861613994,
        "alt_km": 400.4693661162046,
        "timestamp": "2025-12-09T20:37:08.056541+00:00",
        "meta_object_name": "STARLINK-35811",
        "meta_object_id": "2025-270J",
        "meta_epoch": "2025-12-09T14:00:01.999872",
        "meta_mean_motion": 15.55503764,
        "meta_eccentricity": 0.0001745,
        "meta_inclination": 42.9996,
        "meta_ra_of_asc_node": 211.1813,
        "meta_arg_of_pericenter": 259.123,
        "meta_mean_anomaly": 133.3047,
        "meta_ephemeris_type": 0,
        "meta_classification_type": "U",
        "meta_norad_cat_id": 66596,
        "meta_element_set_no": 999,
        "meta_rev_at_epoch": 400,
        "meta_bstar": -0.03180051,
        "meta_mean_motion_dot": -0.01996504,
        "meta_mean_motion_ddot": 0,
        "tle_line1": "1 66596U 25270J   25343.58335648 -.01996504  00000+0 -31801-1 0  9996",
        "tle_line2": "2 66596  42.9996 211.1813 0001745 259.1230 133.3047 15.55503764  4005"
      },
      "geometry": {
        "type": "Point",
        "coordinates": [
          -3.8560664861613994,
          27.16412826413985
        ]
      }
    }
  ]
}